[{"OBJECT_NAME":"STARLINK-4399","OBJECT_ID":"2022-099E","EPOCH":"2026-03-09T20:55:05.751840","MEAN_MOTION":15.0564579,"ECCENTRICITY":0.00013048,"INCLINATION":97.6034,"RA_OF_ASC_NODE":191.4197,"ARG_OF_PERICENTER":218.2726,"MEAN_ANOMALY":141.8408,"EPHEMERIS_TYPE":0,"CLASSIFICATION_TYPE":"U","NORAD_CAT_ID":53469,"ELEMENT_SET_NO":999,"REV_AT_EPOCH":19607,"BSTAR":4.6409548e-5,"MEAN_MOTION_DOT":6.09e-6,"MEAN_MOTION_DDOT":0},{"OBJECT_NAME":"SL-8 DEB","OBJECT_ID":"1976-098E","EPOCH":"2026-03-09T08:07:12.416160","MEAN_MOTION":15.06605169,"ECCENTRICITY":0.00102283,"INCLINATION":74.028,"RA_OF_ASC_NODE":26.283,"ARG_OF_PERICENTER":218.296,"MEAN_ANOMALY":294.2383,"EPHEMERIS_TYPE":0,"CLASSIFICATION_TYPE":"U","NORAD_CAT_ID":18504,"ELEMENT_SET_NO":999,"REV_AT_EPOCH":18055,"BSTAR":0.0011587434,"MEAN_MOTION_DOT":0.00017191,"MEAN_MOTION_DDOT":0}]
